LANDSAT 9               
1 49260U 21088A   23294.51473487  .00000739  00000+0  17413-3 0  9996
2 49260  98.2178   2.8190 0001127  90.4850 269.6478 14.57113567109782
